H1 CPF 01  gfz 2021 10 01 00  7741 terrasarx 
H2 0702601  6201 31698    2021 10 01 00 59 42 2021 10 06 00 00 42   120 1 1  0 0 0
H9
10 0 59492   5742.000000  0   -2696390.527  -4853827.340   4067942.356
10 0 59492   5862.000000  0   -2579373.654  -4252483.947   4756463.853
10 0 59492   5982.000000  0   -2406129.907  -3579369.333   5361275.696
10 0 59492   6102.000000  0   -2178558.996  -2847236.802   5871769.602
10 0 59492   6222.000000  0   -1899739.123  -2069817.926   6279004.481
10 0 59492   6342.000000  0   -1573884.959  -1261560.739   6575858.053
10 0 59492   6462.000000  0   -1206282.259   -437357.056   6757145.882
10 0 59492   6582.000000  0    -803201.443    387733.527   6819704.406
10 0 59492   6702.000000  0    -371790.970   1198757.368   6762443.000
10 0 59492   6822.000000  0      80049.478   1981137.515   6586362.359
10 0 59492   6942.000000  0     543813.513   2720935.608   6294537.908
10 0 59492   7062.000000  0    1010547.303   3405100.078   5892069.116
10 0 59492   7182.000000  0    1471021.084   4021698.691   5385995.955
10 0 59492   7302.000000  0    1915910.541   4560131.112   4785181.846
10 0 59492   7422.000000  0    2335985.609   5011317.893   4100163.996
10 0 59492   7542.000000  0    2722301.696   5367859.654   3342972.380
10 0 59492   7662.000000  0    3066390.171   5624166.896   2526922.592
10 0 59492   7782.000000  0    3360444.495   5776557.054   1666378.871
10 0 59492   7902.000000  0    3597494.240   5823309.394    776495.338
10 0 59492   8022.000000  0    3771564.103   5764682.068   -127057.374
10 0 59492   8142.000000  0    3877815.113   5602888.374  -1028376.737
10 0 59492   8262.000000  0    3912662.597   5342033.576  -1911616.176
10 0 59492   8382.000000  0    3873869.218   4988014.566  -2761271.364
10 0 59492   8502.000000  0    3760609.587   4548384.030  -3562458.318
10 0 59492   8622.000000  0    3573505.271   4032183.222  -4301176.396
10 0 59492   8742.000000  0    3314631.072   3449749.763  -4964550.870
10 0 59492   8862.000000  0    2987492.421   2812504.363  -5541052.981
10 0 59492   8982.000000  0    2596974.353   2132721.190  -6020691.836
10 0 59492   9102.000000  0    2149264.377   1423288.443  -6395177.195
10 0 59492   9222.000000  0    1651751.056    697463.449  -6658050.430
10 0 59492   9342.000000  0    1112901.844    -31371.890  -6804784.938
10 0 59492   9462.000000  0     542119.430   -749953.345  -6832857.256
10 0 59492   9582.000000  0     -50420.423  -1445370.674  -6741784.181
10 0 59492   9702.000000  0    -653945.213  -2105292.628  -6533129.405
10 0 59492   9822.000000  0   -1257276.566  -2718180.541  -6210481.161
10 0 59492   9942.000000  0   -1849032.524  -3273487.892  -5779396.836
10 0 59492  10062.000000  0   -2417837.303  -3761840.922  -5247316.992
10 0 59492  10182.000000  0   -2952537.584  -4175200.157  -4623449.591
10 0 59492  10302.000000  0   -3442421.611  -4506998.827  -3918621.513
10 0 59492  10422.000000  0   -3877434.921  -4752253.901  -3145099.904
10 0 59492  10542.000000  0   -4248389.472  -4907648.323  -2316385.892
10 0 59492  10662.000000  0   -4547161.155  -4971581.372  -1446982.316
10 0 59492  10782.000000  0   -4766870.290  -4944185.530   -552139.517
10 0 59492  10902.000000  0   -4902040.216  -4827308.902    352416.114
10 0 59492  11022.000000  0   -4948729.713  -4624463.003   1250765.833
10 0 59492  11142.000000  0   -4904634.767  -4340735.706   2127088.347
10 0 59492  11262.000000  0   -4769156.694  -3982671.814   2965947.643
10 0 59492  11382.000000  0   -4543435.647  -3558125.010   3752572.541
10 0 59492  11502.000000  0   -4230348.824  -3076085.233   4473122.856
10 0 59492  11622.000000  0   -3834472.391  -2546484.839   5114935.900
10 0 59492  11742.000000  0   -3362010.230  -1979990.542   5666747.285
10 0 59492  11862.000000  0   -2820692.111  -1387786.434   6118885.724
10 0 59492  11982.000000  0   -2219641.826   -781350.569   6463439.184
10 0 59492  12102.000000  0   -1569217.652   -172229.500   6694387.677
10 0 59492  12222.000000  0    -880829.720    428181.457   6807700.558
10 0 59492  12342.000000  0    -166739.476   1008849.675   6801402.128
10 0 59492  12462.000000  0     560158.326   1559307.387   6675604.208
10 0 59492  12582.000000  0    1286567.968   2069840.469   6432504.367
10 0 59492  12702.000000  0    1999035.193   2531659.799   6076349.103
10 0 59492  12822.000000  0    2684195.664   2937053.148   5613364.774
10 0 59492  12942.000000  0    3329027.357   3279516.775   5051655.695
10 0 59492  13062.000000  0    3921101.520   3553863.252   4401067.030
10 0 59492  13182.000000  0    4448824.615   3756302.344   3673017.563
10 0 59492  13302.000000  0    4901673.506   3884496.596   2880304.297
10 0 59492  13422.000000  0    5270411.468   3937585.945   2036874.940
10 0 59492  13542.000000  0    5547281.704   3916181.755   1157580.201
10 0 59492  13662.000000  0    5726173.919   3822331.134    257906.006
10 0 59492  13782.000000  0    5802758.719   3659451.029   -646307.831
10 0 59492  13902.000000  0    5774585.889   3432234.203  -1539155.281
10 0 59492  14022.000000  0    5641144.874   3146529.455  -2404952.092
10 0 59492  14142.000000  0    5403885.622   2809199.913  -3228517.282
10 0 59492  14262.000000  0    5066201.302   2427963.270  -3995442.637
10 0 59492  14382.000000  0    4633372.933   2011217.579  -4692346.346
10 0 59492  14502.000000  0    4112475.537   1567856.364  -5307102.727
10 0 59492  14622.000000  0    3512253.061   1107080.012  -5829045.106
10 0 59492  14742.000000  0    2842963.511    638206.881  -6249141.540
10 0 59492  14862.000000  0    2116197.257    170487.443  -6560139.711
10 0 59492  14982.000000  0    1344674.432   -287074.059  -6756680.394
10 0 59492  15102.000000  0     542023.939   -725888.926  -6835381.670
10 0 59492  15222.000000  0    -277454.980  -1137941.178  -6794890.012
10 0 59492  15342.000000  0   -1099040.984  -1515929.494  -6635899.965
10 0 59492  15462.000000  0   -1907848.694  -1853393.444  -6361144.554
10 0 59492  15582.000000  0   -2689092.677  -2144822.371  -5975352.949
10 0 59492  15702.000000  0   -3428351.956  -2385744.538  -5485177.556
10 0 59492  15822.000000  0   -4111834.644  -2572797.127  -4899091.738
10 0 59492  15942.000000  0   -4726637.972  -2703774.522  -4227254.606
10 0 59492  16062.000000  0   -5260996.586  -2777653.430  -3481345.209
10 0 59492  16182.000000  0   -5704515.658  -2794594.445  -2674367.906
10 0 59492  16302.000000  0   -6048382.788  -2755919.100  -1820430.321
10 0 59492  16422.000000  0   -6285552.729  -2664062.984   -934497.933
10 0 59492  16542.000000  0   -6410900.517  -2522505.222    -32129.089
10 0 59492  16662.000000  0   -6421337.963  -2335675.730    870803.857
10 0 59492  16782.000000  0   -6315890.735  -2108842.414   1758402.298
10 0 59492  16902.000000  0   -6095731.314  -1847981.010   2615031.389
10 0 59492  17022.000000  0   -5764168.216  -1559630.941   3425603.343
10 0 59492  17142.000000  0   -5326593.524  -1250741.097   4175850.899
10 0 59492  17262.000000  0   -4790385.917   -928508.928   4852583.125
10 0 59492  17382.000000  0   -4164776.921   -600218.239   5443916.322
10 0 59492  17502.000000  0   -3460684.133   -273079.205   5939481.050
10 0 59492  17622.000000  0   -2690511.898     45927.031   6330600.591
10 0 59492  17742.000000  0   -1867925.113    350194.262   6610436.885
10 0 59492  17862.000000  0   -1007601.818    633624.465   6774103.696
10 0 59492  17982.000000  0    -124969.257    890748.074   6818746.250
10 0 59492  18102.000000  0     764072.504   1116828.174   6743587.325
10 0 59492  18222.000000  0    1643435.876   1307947.597   6549940.026
10 0 59492  18342.000000  0    2497135.913   1461077.146   6241186.062
10 0 59492  18462.000000  0    3309580.568   1574123.578   5822720.950
10 0 59492  18582.000000  0    4065858.116   1645957.021   5301865.119
10 0 59492  18702.000000  0    4752013.758   1676417.343   4687741.438
10 0 59492  18822.000000  0    5355313.595   1666300.311   3991123.217
10 0 59492  18942.000000  0    5864491.846   1617322.340   3224248.330
10 0 59492  19062.000000  0    6269969.163   1532064.778   2400603.813
10 0 59492  19182.000000  0    6564042.604   1413898.277   1534688.309
10 0 59492  19302.000000  0    6741040.125   1266890.064    641751.191
10 0 59492  19422.000000  0    6797434.853   1095695.865   -262482.781
10 0 59492  19542.000000  0    6731917.645    905439.047  -1162099.691
10 0 59492  19662.000000  0    6545422.653    701579.557  -2041285.492
10 0 59492  19782.000000  0    6241109.042    489776.286  -2884610.720
10 0 59492  19902.000000  0    5824298.568    275747.595  -3677306.515
10 0 59492  20022.000000  0    5302371.035     65132.821  -4405525.694
10 0 59492  20142.000000  0    4684619.640   -136641.846  -5056582.633
10 0 59492  20262.000000  0    3982073.199   -324489.442  -5619167.166
10 0 59492  20382.000000  0    3207290.254   -493777.910  -6083532.497
10 0 59492  20502.000000  0    2374127.244   -640433.656  -6441654.376
10 0 59492  20622.000000  0    1497486.842   -761029.917  -6687357.379
10 0 59492  20742.000000  0     593053.013   -852859.944  -6816411.230
10 0 59492  20862.000000  0    -322986.429   -913992.734  -6826596.266
10 0 59492  20982.000000  0   -1234223.105   -943310.792  -6717736.543
10 0 59492  21102.000000  0   -2124315.128   -940530.044  -6491703.213
10 0 59492  21222.000000  0   -2977273.930   -906200.968  -6152384.783
10 0 59492  21342.000000  0   -3777744.700   -841691.602  -5705627.267
10 0 59492  21462.000000  0   -4511281.451   -749152.472  -5159145.236
10 0 59492  21582.000000  0   -5164610.188   -631463.375  -4522399.506
10 0 59492  21702.000000  0   -5725874.628   -492163.678  -3806444.914
10 0 59492  21822.000000  0   -6184861.620   -335366.637  -3023748.293
10 0 59492  21942.000000  0   -6533198.905   -165658.671  -2187977.472
10 0 59492  22062.000000  0   -6764521.230     12012.961  -1313766.087
10 0 59492  22182.000000  0   -6874600.639    192463.464   -416455.647
99
